NORAD_CAT_ID,OBJECT_NAME,OBJECT_TYPE,EPOCH,MEAN_MOTION,ECCENTRICITY,INCLINATION,RA_OF_ASC_NODE,ARG_OF_PERICENTER,MEAN_ANOMALY,BSTAR,MEAN_MOTION_DOT,MEAN_MOTION_DDOT,TLE_LINE0,TLE_LINE1,TLE_LINE2,SEMIMAJOR_AXIS,PERIOD,APOGEE,PERIGEE,DECAYED
51146.0,STARLINK-3354,PAYLOAD,2022-04-23 22:00:00,15.12372326,0.0001794,53.2175,174.7903,37.9598,51.3078,-0.044205,-0.00722171,0.0,0 STARLINK-3354,1 51146U 22005AU  22113.91667824 -.00722171  00000-0 -44205-1 0  9996,2 51146  53.2175 174.7903 0001794  37.9598  51.3078 15.12372326 16121,6907.105,95.215,530.2090000000002,527.73,0.0
51146.0,STARLINK-3354,PAYLOAD,2022-04-24 14:00:01,15.11349638,0.0001908,53.2174,171.7864,39.0157,80.6982,-0.04519,-0.00717772,0.0,0 STARLINK-3354,1 51146U 22005AU  22114.58334491 -.00717772  00000-0 -45190-1 0  9996,2 51146  53.2174 171.7864 0001908  39.0157  80.6982 15.11349638  3634,6910.22,95.279,533.404,530.7669999999998,0.0
51146.0,STARLINK-3354,PAYLOAD,2022-04-25 06:00:00,15.10332721,0.0002042,53.2175,168.78400000000005,36.1199,111.5888,-0.046819,-0.00722567,0.0,0 STARLINK-3354,1 51146U 22005AU  22115.25001157 -.00722567  00000-0 -46819-1 0  9998,2 51146  53.2175 168.7840 0002042  36.1199 111.5888 15.10332721 16322,6913.321,95.343,536.5980000000002,533.775,0.0
51146.0,STARLINK-3354,PAYLOAD,2022-04-25 14:00:01,15.09818602,0.0001965,53.2174,167.2868,39.8844,120.9033,-0.047002,-0.00715626,0.0,0 STARLINK-3354,1 51146U 22005AU  22115.58334491 -.00715626  00000-0 -47002-1 0  9997,2 51146  53.2174 167.2868 0001965  39.8844 120.9033 15.09818602  3658,6914.891,95.376,538.115,535.3969999999998,0.0
51146.0,STARLINK-3354,PAYLOAD,2022-04-25 22:00:00,15.09234394,0.0001853,53.2175,165.7873,39.0577,134.2105,-0.033961,-0.00514503,0.0,0 STARLINK-3354,1 51146U 22005AU  22115.91667824 -.00514503  00000-0 -33961-1 0  9993,2 51146  53.2175 165.7873 0001853  39.0577 134.2105 15.09234394  3646,6916.675,95.413,539.822,537.258,0.0
51146.0,STARLINK-3354,PAYLOAD,2022-04-26 06:00:00,15.08836857,0.000212,53.2176,164.291,34.0677,151.0419,-2.5603e-05,-6.96e-06,0.0,0 STARLINK-3354,1 51146U 22005AU  22116.25001157 -.00000696  00000-0 -25603-4 0  9992,2 51146  53.2176 164.2910 0002120  34.0677 151.0419 15.08836857 16478,6917.89,95.438,541.222,538.288,0.0
51146.0,STARLINK-3354,PAYLOAD,2022-04-26 14:00:01,15.08860042,0.0001831,53.2162,162.7929,33.7575,163.056,-0.0075113,-0.00117946,0.0,0 STARLINK-3354,1 51146U 22005AU  22116.58335648 -.00117946  00000-0 -75113-2 0  9999,2 51146  53.2162 162.7929 0001831  33.7575 163.0560 15.08860042  3634,6917.819,95.436,540.951,538.4169999999998,0.0
51146.0,STARLINK-3354,PAYLOAD,2022-04-26 22:00:00,15.08816116,0.0001725,53.2173,161.2971,39.727,168.5768,0.0021985,0.00034852,0.0,0 STARLINK-3354,1 51146U 22005AU  22116.91667824  .00034852  00000-0  21985-2 0  9990,2 51146  53.2173 161.2971 0001725  39.7270 168.5768 15.08816116  3607,6917.953,95.439,541.012,538.625,0.0
51146.0,STARLINK-3354,PAYLOAD,2022-04-27 06:00:00,15.08864359,0.0001862,53.2149,159.7946,43.661,176.3489,-0.0049546999999999,-0.00078339,0.0,0 STARLINK-3354,1 51146U 22005AU  22117.25001157 -.00078339  00000-0 -49547-2 0  9993,2 51146  53.2149 159.7946 0001862  43.6610 176.3489 15.08864359 16623,6917.806,95.436,540.9590000000002,538.383,0.0
51146.0,STARLINK-3354,PAYLOAD,2022-04-27 14:00:01,15.08794122,0.0002063,53.2144,158.2992,41.1702,190.4931,0.0030402,0.00048369,0.0,0 STARLINK-3354,1 51146U 22005AU  22117.58335648  .00048369  00000-0  30402-2 0  9992,2 51146  53.2144 158.2992 0002063  41.1702 190.4931 15.08794122  3605,6918.021,95.44,541.313,538.4580000000002,0.0
51146.0,STARLINK-3354,PAYLOAD,2022-04-27 22:00:00,15.08804273,0.000187,53.2156,156.8011,45.8075,197.361,0.0022312,0.00035366,0.0,0 STARLINK-3354,1 51146U 22005AU  22117.91667824  .00035366  00000-0  22312-2 0  9997,2 51146  53.2156 156.8011 0001870  45.8075 197.3610 15.08804273 16729,6917.99,95.44,541.148,538.561,0.0
51146.0,STARLINK-3354,PAYLOAD,2022-04-28 14:00:01,15.08825584,0.0002063,53.216,153.8102,42.6912,223.6465,0.0026431,0.00042012,0.0,0 STARLINK-3354,1 51146U 22005AU  22118.58334491  .00042012  00000-0  26431-2 0  9994,2 51146  53.2160 153.8102 0002063  42.6912 223.6465 15.08825584  3648,6917.924,95.438,541.217,538.362,0.0
51146.0,STARLINK-3354,PAYLOAD,2022-04-28 20:00:01,15.08855043,0.0001902,53.2159,152.6863,46.6797,138.3621,0.0002651,3.935e-05,0.0,0 STARLINK-3354,1 51146U 22005AU  22118.83334491  .00003935  00000-0  26510-3 0  9992,2 51146  53.2159 152.6863 0001902  46.6797 138.3621 15.08855043 16860,6917.834,95.437,541.015,538.384,0.0
51146.0,STARLINK-3354,PAYLOAD,2022-04-29 14:00:01,15.08838358,0.0001951,53.2151,149.3208,40.1919,260.9651,-0.0008916,-0.0001445,0.0,0 STARLINK-3354,1 51146U 22005AU  22119.58334491 -.00014450  00000-0 -89160-3 0  9991,2 51146  53.2151 149.3208 0001951  40.1919 260.9651 15.08838358 16974,6917.885,95.438,541.1,538.401,0.0
51146.0,STARLINK-3354,PAYLOAD,2022-04-29 22:00:00,15.08795792,0.000176,53.2151,147.8226,44.5265,268.228,0.0030734,0.00048906,0.0,0 STARLINK-3354,1 51146U 22005AU  22119.91667824  .00048906  00000-0  30734-2 0  9990,2 51146  53.2151 147.8226 0001760  44.5265 268.2280 15.08795792  3684,6918.016,95.44,541.0980000000002,538.663,0.0
51146.0,STARLINK-3354,PAYLOAD,2022-04-30 14:00:01,15.08822357,0.000199,53.2147,144.8313,39.355,296.5406,0.0012384,0.00019467,0.0,0 STARLINK-3354,1 51146U 22005AU  22120.58334491  .00019467  00000-0  12384-2 0  9997,2 51146  53.2147 144.8313 0001990  39.3550 296.5406 15.08822357  3601,6917.934,95.439,541.1759999999998,538.423,0.0
51146.0,STARLINK-3354,PAYLOAD,2022-04-30 22:00:00,15.08812483,0.0001835,53.2149,143.333,45.282,302.2128,0.0031796,0.00050641,0.0,0 STARLINK-3354,1 51146U 22005AU  22120.91667824  .00050641  00000-0  31796-2 0  9990,2 51146  53.2149 143.3330 0001835  45.2820 302.2128 15.08812483 17172,6917.964,95.439,541.099,538.56,0.0
51146.0,STARLINK-3354,PAYLOAD,2022-05-01 14:00:01,15.08855068,0.0002056,53.2148,140.3417,38.9366,331.7369,-0.0019039,-0.00030474,0.0,0 STARLINK-3354,1 51146U 22005AU  22121.58334491 -.00030474  00000-0 -19039-2 0  9995,2 51146  53.2148 140.3417 0002056  38.9366 331.7369 15.08855068 17275,6917.834,95.437,541.122,538.2769999999998,0.0
51146.0,STARLINK-3354,PAYLOAD,2022-05-01 22:00:01,15.08799854,0.0001848,53.215,138.8434,43.3214,339.0319,0.003221,0.00051291,0.0,0 STARLINK-3354,1 51146U 22005AU  22121.91668981  .00051291  00000-0  32210-2 0  9990,2 51146  53.2150 138.8434 0001848  43.3214 339.0319 15.08799854  3629,6918.003000000002,95.44,541.1469999999998,538.59,0.0
51146.0,STARLINK-3354,PAYLOAD,2022-05-02 14:00:01,15.08832512,0.0002119,53.2152,135.8522,38.8103,6.6269,0.0001686999999999,2.397e-05,0.0,0 STARLINK-3354,1 51146U 22005AU  22122.58334491  .00002397  00000-0  16870-3 0  9998,2 51146  53.2152 135.8522 0002119  38.8103   6.6269 15.08832512 17427,6917.903,95.438,541.234,538.302,0.0
51146.0,STARLINK-3354,PAYLOAD,2022-05-02 22:00:01,15.08812888,0.0001944,53.2157,134.35399999999998,44.3831,12.716,0.0030021,0.00047779,0.0,0 STARLINK-3354,1 51146U 22005AU  22122.91668981  .00047779  00000-0  30021-2 0  9995,2 51146  53.2157 134.3540 0001944  44.3831  12.7160 15.08812888  3585,6917.9630000000025,95.439,541.173,538.4830000000002,0.0
51146.0,STARLINK-3354,PAYLOAD,2022-05-03 14:00:01,15.08848607,0.000219,53.2158,131.3628,40.419,39.7945,-0.00027792,-4.71e-05,0.0,0 STARLINK-3354,1 51146U 22005AU  22123.58334491 -.00004710  00000-0 -27792-3 0  9997,2 51146  53.2158 131.3628 0002190  40.4190  39.7945 15.08848607  3611,6917.854,95.437,541.234,538.2040000000002,0.0
51146.0,STARLINK-3354,PAYLOAD,2022-05-03 22:00:00,15.08827458,0.0002008,53.2162,129.8648,46.0346,45.7915,0.0028241,0.00044929,0.0,0 STARLINK-3354,1 51146U 22005AU  22123.91667824  .00044929  00000-0  28241-2 0  9996,2 51146  53.2162 129.8648 0002008  46.0346  45.7915 15.08827458 17635,6917.919,95.438,541.173,538.395,0.0
51146.0,STARLINK-3354,PAYLOAD,2022-05-04 12:00:00,15.08850974,0.0002202,53.2163,127.2481,40.46,341.6759,0.0002363,3.476e-05,0.0,0 STARLINK-3354,1 51146U 22005AU  22124.50001157  .00003476  00000-0  23630-3 0  9993,2 51146  53.2163 127.2481 0002202  40.4600 341.6759 15.08850974 17712,6917.847,95.437,541.235,538.189,0.0
51146.0,STARLINK-3354,PAYLOAD,2022-05-04 14:00:01,15.08875539,0.0002184,53.2162,126.8735,41.2265,73.8057,-0.0034765,-0.00055248,0.0,0 STARLINK-3354,1 51146U 22005AU  22124.58334491 -.00055248  00000-0 -34765-2 0  9997,2 51146  53.2162 126.8735 0002184  41.2265  73.8057 15.08875539  3616,6917.772,95.435,541.148,538.126,0.0
51146.0,STARLINK-3354,PAYLOAD,2022-05-04 22:00:01,15.08815495,0.0001942,53.2165,125.3756,45.5745,81.1458,0.0025797,0.0004098,0.0,0 STARLINK-3354,1 51146U 22005AU  22124.91668981  .00040980  00000-0  25797-2 0  9998,2 51146  53.2165 125.3756 0001942  45.5745  81.1458 15.08815495  3620,6917.955,95.439,541.164,538.477,0.0
51146.0,STARLINK-3354,PAYLOAD,2022-05-05 06:00:00,15.08844273,0.0002112,53.2166,123.881,43.3542,94.8866,-0.0012243,-0.00019723,0.0,0 STARLINK-3354,1 51146U 22005AU  22125.25001157 -.00019723  00000-0 -12243-2 0  9997,2 51146  53.2166 123.8810 0002112  43.3542  94.8866 15.08844273 17834,6917.8669999999975,95.437,541.193,538.271,0.0
51146.0,STARLINK-3354,PAYLOAD,2022-05-05 14:00:01,15.0885214,0.0002127,53.2163,122.3845,42.1937,107.6361,-0.0010639,-0.00017186,0.0,0 STARLINK-3354,1 51146U 22005AU  22125.58334491 -.00017186  00000-0 -10639-2 0  9991,2 51146  53.2163 122.3845 0002127  42.1937 107.6361 15.08852140  3586,6917.843000000003,95.437,541.18,538.237,0.0
51146.0,STARLINK-3354,PAYLOAD,2022-05-05 22:00:00,15.08835489,0.0001943,53.2166,120.8869,47.4298,114.0035,0.001137,0.00017852,0.0,0 STARLINK-3354,1 51146U 22005AU  22125.91667824  .00017852  00000-0  11370-2 0  9998,2 51146  53.2166 120.8869 0001943  47.4298 114.0035 15.08835489 17932,6917.894,95.438,541.1030000000002,538.415,0.0
